{
  "schema_version": 1,
  "seed": "42",
  "age_s": 2.534128698733254e+17,
  "stars": [
    {
      "mass_kg": 9.985510979204443e+29,
      "radius_m": 400889227.48129445,
      "luminosity_w": 2.432113528611903e+25,
      "temperature_k": 3817.4917711636,
      "main_sequence_lifetime_s": 1.7670732315645555e+18,
      "orbit": null
    },
    {
      "mass_kg": 2.3551175615682886e+29,
      "radius_m": 126222920.39456184,
      "luminosity_w": 6.508919492444552e+23,
      "temperature_k": 2751.7086859897922,
      "main_sequence_lifetime_s": 6.541070117245465e+19,
      "orbit": {
        "semi_major_axis_m": 4445414927.108157,
        "eccentricity": 0.293266643636562,
        "inclination_rad": 0.03564950805102585,
        "raan_rad": 3.5647237583759273,
        "arg_periapsis_rad": 0.11943406740929241,
        "mean_anomaly_epoch_rad": 5.0101221715925846
      }
    }
  ],
  "planet_host": "Barycenter",
  "planets": [
    {
      "class": "Rocky",
      "mass_kg": 1.197022758025621e+25,
      "radius_m": 7686683.200916353,
      "orbit": {
        "semi_major_axis_m": 25282998450.33875,
        "eccentricity": 0.06374066185594175,
        "inclination_rad": 0.04726815235392255,
        "raan_rad": 2.383787523247677,
        "arg_periapsis_rad": 3.885181838145604,
        "mean_anomaly_epoch_rad": 5.109351834807964
      },
      "secular": {
        "apsidal_rad_per_s": 2.464852787673691e-13,
        "nodal_rad_per_s": 0.0,
        "migration_m_per_s": 0.0
      },
      "axial_tilt_rad": 0.0021986475108278555,
      "axial_precession_rad_per_s": 3.055852159841415e-10,
      "rotation_period_s": 116628.02879472986,
      "spin_drift_s_per_s": 4.793782993327098e-10,
      "state": {
        "kind": "Living"
      },
      "moons": [
        {
          "mass_kg": 1.7602739645096944e+22,
          "radius_m": 1118897.0629358937,
          "orbit": {
            "semi_major_axis_m": 103718594.10952817,
            "eccentricity": 0.05506463522815247,
            "inclination_rad": 0.03253461380349059,
            "raan_rad": 3.3016639935039174,
            "arg_periapsis_rad": 3.339578621494258,
            "mean_anomaly_epoch_rad": 3.403441365513434
          },
          "secular": {
            "apsidal_rad_per_s": 2.9980495270623705e-7,
            "nodal_rad_per_s": -1.427642631934462e-7,
            "migration_m_per_s": 6.989469080963842e-7
          },
          "tidally_locked": true,
          "rotation_period_s": 234806.83510687776,
          "doom_time_s": null
        }
      ],
      "calendar": null
    },
    {
      "class": "Rocky",
      "mass_kg": 8.557379254319968e+24,
      "radius_m": 7020747.322396715,
      "orbit": {
        "semi_major_axis_m": 48638494005.471115,
        "eccentricity": 0.11072689754170416,
        "inclination_rad": 0.03202196308929631,
        "raan_rad": 1.1755104671760315,
        "arg_periapsis_rad": 0.30530364238044644,
        "mean_anomaly_epoch_rad": 5.468416267996281
      },
      "secular": {
        "apsidal_rad_per_s": 4.841741629132349e-14,
        "nodal_rad_per_s": 0.0,
        "migration_m_per_s": 0.0
      },
      "axial_tilt_rad": 0.2627197563332895,
      "axial_precession_rad_per_s": 5.109696278324238e-11,
      "rotation_period_s": 78407.00867506544,
      "spin_drift_s_per_s": 0.0,
      "state": {
        "kind": "Living"
      },
      "moons": [],
      "calendar": {
        "solar_day_s": 79243.65291768998,
        "year_solar_days": 93.71606793002474,
        "leap": {
          "base_days": 93,
          "terms": [
            {
              "every_years": 1,
              "add_days": 1
            },
            {
              "every_years": 4,
              "add_days": -1
            },
            {
              "every_years": 29,
              "add_days": -1
            }
          ]
        },
        "months": []
      }
    },
    {
      "class": "Rocky",
      "mass_kg": 1.1999155233536343e+24,
      "radius_m": 4130684.3936650963,
      "orbit": {
        "semi_major_axis_m": 94806647242.68369,
        "eccentricity": 0.006300872574119771,
        "inclination_rad": 0.019356674320393646,
        "raan_rad": 0.5241815413189194,
        "arg_periapsis_rad": 4.239707682962557,
        "mean_anomaly_epoch_rad": 5.520121751613314
      },
      "secular": {
        "apsidal_rad_per_s": 9.016015002146062e-15,
        "nodal_rad_per_s": 0.0,
        "migration_m_per_s": 0.0
      },
      "axial_tilt_rad": 0.30501121533659464,
      "axial_precession_rad_per_s": 1.0270893530540835e-11,
      "rotation_period_s": 52024.321127937816,
      "spin_drift_s_per_s": 0.0,
      "state": {
        "kind": "Living"
      },
      "moons": [],
      "calendar": null
    },
    {
      "class": "Rocky",
      "mass_kg": 1.7787792997889052e+24,
      "radius_m": 4593929.123210704,
      "orbit": {
        "semi_major_axis_m": 178665008839.39566,
        "eccentricity": 0.01331335039311947,
        "inclination_rad": 0.04999388995927815,
        "raan_rad": 5.464113701122587,
        "arg_periapsis_rad": 3.3829221998325627,
        "mean_anomaly_epoch_rad": 3.973264211490751
      },
      "secular": {
        "apsidal_rad_per_s": 1.849577675859323e-15,
        "nodal_rad_per_s": 0.0,
        "migration_m_per_s": 0.0
      },
      "axial_tilt_rad": 0.3525547068517199,
      "axial_precession_rad_per_s": 9.853779420675647e-13,
      "rotation_period_s": 79719.36587855117,
      "spin_drift_s_per_s": 0.0,
      "state": {
        "kind": "Living"
      },
      "moons": [],
      "calendar": null
    },
    {
      "class": "Rocky",
      "mass_kg": 8.679315912021555e+24,
      "radius_m": 7047618.97858026,
      "orbit": {
        "semi_major_axis_m": 319164553798.3225,
        "eccentricity": 0.09484155359198229,
        "inclination_rad": 0.04474550100985092,
        "raan_rad": 1.4509152777651875,
        "arg_periapsis_rad": 0.8171775986446125,
        "mean_anomaly_epoch_rad": 3.246153339852327
      },
      "secular": {
        "apsidal_rad_per_s": 4.375038121144713e-16,
        "nodal_rad_per_s": 0.0,
        "migration_m_per_s": 0.0
      },
      "axial_tilt_rad": 0.2559047543166845,
      "axial_precession_rad_per_s": 3.303686541200601e-10,
      "rotation_period_s": 96015.35132665967,
      "spin_drift_s_per_s": 1.934077587107707e-9,
      "state": {
        "kind": "Living"
      },
      "moons": [
        {
          "mass_kg": 1.0358937338351185e+23,
          "radius_m": 2020079.4345857229,
          "orbit": {
            "semi_major_axis_m": 106930799.61594652,
            "eccentricity": 0.014331557573242382,
            "inclination_rad": 0.0679563982667783,
            "raan_rad": 2.987464277325622,
            "arg_periapsis_rad": 2.4858489796751693,
            "mean_anomaly_epoch_rad": 4.65446886262781
          },
          "secular": {
            "apsidal_rad_per_s": 1.8288775987224697e-10,
            "nodal_rad_per_s": -8.708940946297474e-11,
            "migration_m_per_s": 2.646370776116054e-6
          },
          "tidally_locked": true,
          "rotation_period_s": 288661.2447799395,
          "doom_time_s": null
        }
      ],
      "calendar": null
    }
  ],
  "anchor_planet": 1
}
